[{"OBJECT_NAME":"CSTP 1.2 (STC 1.2)","OBJECT_ID":"2023-091W","EPOCH":"2026-03-09T23:12:27.821952","MEAN_MOTION":15.2718076,"ECCENTRICITY":0.00204388,"INCLINATION":97.5258,"RA_OF_ASC_NODE":134.3262,"ARG_OF_PERICENTER":84.9592,"MEAN_ANOMALY":275.3979,"EPHEMERIS_TYPE":0,"CLASSIFICATION_TYPE":"U","NORAD_CAT_ID":57186,"ELEMENT_SET_NO":999,"REV_AT_EPOCH":14930,"BSTAR":0.00043035718,"MEAN_MOTION_DOT":0.00011466,"MEAN_MOTION_DDOT":0},{"OBJECT_NAME":"STARLINK-32564","OBJECT_ID":"2024-207N","EPOCH":"2026-03-09T00:12:29.929536","MEAN_MOTION":15.2759924,"ECCENTRICITY":0.00024261,"INCLINATION":43.003,"RA_OF_ASC_NODE":289.4151,"ARG_OF_PERICENTER":269.0259,"MEAN_ANOMALY":91.0314,"EPHEMERIS_TYPE":0,"CLASSIFICATION_TYPE":"U","NORAD_CAT_ID":61924,"ELEMENT_SET_NO":999,"REV_AT_EPOCH":7457,"BSTAR":0.0010535307,"MEAN_MOTION_DOT":0.0002886,"MEAN_MOTION_DDOT":0}]
